[{"OBJECT_NAME":"STARLINK-31284","OBJECT_ID":"2024-049R","EPOCH":"2025-07-29T15:07:42.143232","MEAN_MOTION":15.27592172,"ECCENTRICITY":8.89e-5,"INCLINATION":43.0012,"RA_OF_ASC_NODE":323.121,"ARG_OF_PERICENTER":281.5511,"MEAN_ANOMALY":78.5241,"EPHEMERIS_TYPE":0,"CLASSIFICATION_TYPE":"U","NORAD_CAT_ID":59246,"ELEMENT_SET_NO":999,"REV_AT_EPOCH":7828,"BSTAR":0.00024242,"MEAN_MOTION_DOT":6.417e-5,"MEAN_MOTION_DDOT":0},{"OBJECT_NAME":"STARLINK-31424","OBJECT_ID":"2024-049S","EPOCH":"2025-07-29T15:21:20.720160","MEAN_MOTION":15.27587765,"ECCENTRICITY":0.0001419,"INCLINATION":43.0032,"RA_OF_ASC_NODE":319.7281,"ARG_OF_PERICENTER":276.0088,"MEAN_ANOMALY":84.0602,"EPHEMERIS_TYPE":0,"CLASSIFICATION_TYPE":"U","NORAD_CAT_ID":59247,"ELEMENT_SET_NO":999,"REV_AT_EPOCH":7832,"BSTAR":1.8702e-6,"MEAN_MOTION_DOT":-2.11e-6,"MEAN_MOTION_DDOT":0},{"OBJECT_NAME":"STARLINK-31405","OBJECT_ID":"2024-049T","EPOCH":"2025-07-29T18:47:27.758688","MEAN_MOTION":15.27584614,"ECCENTRICITY":0.000208,"INCLINATION":43.0015,"RA_OF_ASC_NODE":322.5443,"ARG_OF_PERICENTER":161.3317,"MEAN_ANOMALY":198.7611,"EPHEMERIS_TYPE":0,"CLASSIFICATION_TYPE":"U","NORAD_CAT_ID":59248,"ELEMENT_SET_NO":999,"REV_AT_EPOCH":7830,"BSTAR":0.00024282,"MEAN_MOTION_DOT":6.426e-5,"MEAN_MOTION_DDOT":0},{"OBJECT_NAME":"STARLINK-31426","OBJECT_ID":"2024-049U","EPOCH":"2025-07-29T15:44:42.661248","MEAN_MOTION":15.27578395,"ECCENTRICITY":0.0001472,"INCLINATION":43.002,"RA_OF_ASC_NODE":323.3077,"ARG_OF_PERICENTER":287.0026,"MEAN_ANOMALY":73.0664,"EPHEMERIS_TYPE":0,"CLASSIFICATION_TYPE":"U","NORAD_CAT_ID":59249,"ELEMENT_SET_NO":999,"REV_AT_EPOCH":7828,"BSTAR":6.8549e-5,"MEAN_MOTION_DOT":1.624e-5,"MEAN_MOTION_DDOT":0},{"OBJECT_NAME":"STARLINK-31407","OBJECT_ID":"2024-049V","EPOCH":"2025-07-29T13:50:13.408512","MEAN_MOTION":15.27588333,"ECCENTRICITY":0.0001539,"INCLINATION":43.0001,"RA_OF_ASC_NODE":312.3296,"ARG_OF_PERICENTER":280.1737,"MEAN_ANOMALY":79.8941,"EPHEMERIS_TYPE":0,"CLASSIFICATION_TYPE":"U","NORAD_CAT_ID":59250,"ELEMENT_SET_NO":999,"REV_AT_EPOCH":7840,"BSTAR":4.2146e-6,"MEAN_MOTION_DOT":-1.46e-6,"MEAN_MOTION_DDOT":0},{"OBJECT_NAME":"STARLINK-31393","OBJECT_ID":"2024-049X","EPOCH":"2025-07-29T14:05:42.688032","MEAN_MOTION":15.27615796,"ECCENTRICITY":8.84e-5,"INCLINATION":43.0009,"RA_OF_ASC_NODE":308.937,"ARG_OF_PERICENTER":277.5974,"MEAN_ANOMALY":82.4777,"EPHEMERIS_TYPE":0,"CLASSIFICATION_TYPE":"U","NORAD_CAT_ID":59252,"ELEMENT_SET_NO":999,"REV_AT_EPOCH":7845,"BSTAR":-0.00017368,"MEAN_MOTION_DOT":-5.043e-5,"MEAN_MOTION_DDOT":0},{"OBJECT_NAME":"STARLINK-31425","OBJECT_ID":"2024-049Y","EPOCH":"2025-07-29T18:10:27.656256","MEAN_MOTION":15.27578472,"ECCENTRICITY":2.2e-5,"INCLINATION":43.0006,"RA_OF_ASC_NODE":322.3541,"ARG_OF_PERICENTER":275.3163,"MEAN_ANOMALY":84.7663,"EPHEMERIS_TYPE":0,"CLASSIFICATION_TYPE":"U","NORAD_CAT_ID":59253,"ELEMENT_SET_NO":999,"REV_AT_EPOCH":7830,"BSTAR":3.2318e-5,"MEAN_MOTION_DOT":6.28e-6,"MEAN_MOTION_DDOT":0},{"OBJECT_NAME":"STARLINK-31659","OBJECT_ID":"2024-050A","EPOCH":"2025-07-29T01:56:09.605472","MEAN_MOTION":15.30197586,"ECCENTRICITY":0.0001341,"INCLINATION":53.1593,"RA_OF_ASC_NODE":137.4651,"ARG_OF_PERICENTER":98.04,"MEAN_ANOMALY":262.0753,"EPHEMERIS_TYPE":0,"CLASSIFICATION_TYPE":"U","NORAD_CAT_ID":59254,"ELEMENT_SET_NO":999,"REV_AT_EPOCH":7749,"BSTAR":4.6768e-5,"MEAN_MOTION_DOT":1.026e-5,"MEAN_MOTION_DDOT":0},{"OBJECT_NAME":"STARLINK-31629","OBJECT_ID":"2024-050B","EPOCH":"2025-07-29T02:07:33.489120","MEAN_MOTION":15.30196154,"ECCENTRICITY":0.0001168,"INCLINATION":53.1588,"RA_OF_ASC_NODE":139.6405,"ARG_OF_PERICENTER":67.1384,"MEAN_ANOMALY":292.974,"EPHEMERIS_TYPE":0,"CLASSIFICATION_TYPE":"U","NORAD_CAT_ID":59255,"ELEMENT_SET_NO":999,"REV_AT_EPOCH":7631,"BSTAR":7.4435e-5,"MEAN_MOTION_DOT":1.846e-5,"MEAN_MOTION_DDOT":0},{"OBJECT_NAME":"STARLINK-31652","OBJECT_ID":"2024-050C","EPOCH":"2025-07-29T12:47:42.065664","MEAN_MOTION":15.30189619,"ECCENTRICITY":0.0001412,"INCLINATION":53.1595,"RA_OF_ASC_NODE":137.443,"ARG_OF_PERICENTER":61.114,"MEAN_ANOMALY":299.0002,"EPHEMERIS_TYPE":0,"CLASSIFICATION_TYPE":"U","NORAD_CAT_ID":59256,"ELEMENT_SET_NO":999,"REV_AT_EPOCH":7638,"BSTAR":0.00010909,"MEAN_MOTION_DOT":2.872e-5,"MEAN_MOTION_DDOT":0},{"OBJECT_NAME":"STARLINK-31655","OBJECT_ID":"2024-050D","EPOCH":"2025-07-29T20:38:40.000416","MEAN_MOTION":15.30193489,"ECCENTRICITY":0.0001274,"INCLINATION":53.16,"RA_OF_ASC_NODE":97.8117,"ARG_OF_PERICENTER":95.6049,"MEAN_ANOMALY":264.5097,"EPHEMERIS_TYPE":0,"CLASSIFICATION_TYPE":"U","NORAD_CAT_ID":59257,"ELEMENT_SET_NO":999,"REV_AT_EPOCH":7696,"BSTAR":4.2589e-5,"MEAN_MOTION_DOT":9.02e-6,"MEAN_MOTION_DDOT":0},{"OBJECT_NAME":"STARLINK-31637","OBJECT_ID":"2024-050E","EPOCH":"2025-07-29T12:38:35.012832","MEAN_MOTION":15.30181315,"ECCENTRICITY":0.0001741,"INCLINATION":53.1605,"RA_OF_ASC_NODE":137.4007,"ARG_OF_PERICENTER":99.0499,"MEAN_ANOMALY":261.0699,"EPHEMERIS_TYPE":0,"CLASSIFICATION_TYPE":"U","NORAD_CAT_ID":59258,"ELEMENT_SET_NO":999,"REV_AT_EPOCH":7638,"BSTAR":0.00011708,"MEAN_MOTION_DOT":3.108e-5,"MEAN_MOTION_DDOT":0},{"OBJECT_NAME":"STARLINK-31506","OBJECT_ID":"2024-050F","EPOCH":"2025-07-29T02:03:00.194688","MEAN_MOTION":15.30195858,"ECCENTRICITY":0.0001366,"INCLINATION":53.1586,"RA_OF_ASC_NODE":139.6206,"ARG_OF_PERICENTER":77.4558,"MEAN_ANOMALY":282.6595,"EPHEMERIS_TYPE":0,"CLASSIFICATION_TYPE":"U","NORAD_CAT_ID":59259,"ELEMENT_SET_NO":999,"REV_AT_EPOCH":7631,"BSTAR":0.00010376,"MEAN_MOTION_DOT":2.715e-5,"MEAN_MOTION_DDOT":0},{"OBJECT_NAME":"STARLINK-31288","OBJECT_ID":"2024-050G","EPOCH":"2025-07-29T22:00:01.999584","MEAN_MOTION":15.5129768,"ECCENTRICITY":0.0003876,"INCLINATION":53.1453,"RA_OF_ASC_NODE":126.7374,"ARG_OF_PERICENTER":58.9048,"MEAN_ANOMALY":45.7204,"EPHEMERIS_TYPE":0,"CLASSIFICATION_TYPE":"U","NORAD_CAT_ID":59260,"ELEMENT_SET_NO":999,"REV_AT_EPOCH":596,"BSTAR":0.0017219,"MEAN_MOTION_DOT":0.0010369,"MEAN_MOTION_DDOT":0},{"OBJECT_NAME":"STARLINK-31639","OBJECT_ID":"2024-050H","EPOCH":"2025-07-29T12:43:08.702112","MEAN_MOTION":15.30184379,"ECCENTRICITY":0.0001246,"INCLINATION":53.1605,"RA_OF_ASC_NODE":137.4224,"ARG_OF_PERICENTER":83.2694,"MEAN_ANOMALY":276.8449,"EPHEMERIS_TYPE":0,"CLASSIFICATION_TYPE":"U","NORAD_CAT_ID":59261,"ELEMENT_SET_NO":999,"REV_AT_EPOCH":7638,"BSTAR":-1.6856e-5,"MEAN_MOTION_DOT":-8.58e-6,"MEAN_MOTION_DDOT":0},{"OBJECT_NAME":"STARLINK-31598","OBJECT_ID":"2024-050K","EPOCH":"2025-07-29T12:18:59.083776","MEAN_MOTION":15.30192442,"ECCENTRICITY":0.0001351,"INCLINATION":53.161,"RA_OF_ASC_NODE":138.0033,"ARG_OF_PERICENTER":100.1681,"MEAN_ANOMALY":259.9472,"EPHEMERIS_TYPE":0,"CLASSIFICATION_TYPE":"U","NORAD_CAT_ID":59263,"ELEMENT_SET_NO":999,"REV_AT_EPOCH":7637,"BSTAR":1.5706e-5,"MEAN_MOTION_DOT":1.06e-6,"MEAN_MOTION_DDOT":0},{"OBJECT_NAME":"STARLINK-31645","OBJECT_ID":"2024-050L","EPOCH":"2025-07-29T02:18:11.662848","MEAN_MOTION":15.30197506,"ECCENTRICITY":0.0001297,"INCLINATION":53.16,"RA_OF_ASC_NODE":139.6878,"ARG_OF_PERICENTER":90.2391,"MEAN_ANOMALY":269.8758,"EPHEMERIS_TYPE":0,"CLASSIFICATION_TYPE":"U","NORAD_CAT_ID":59264,"ELEMENT_SET_NO":999,"REV_AT_EPOCH":7631,"BSTAR":4.7476e-5,"MEAN_MOTION_DOT":1.047e-5,"MEAN_MOTION_DDOT":0},{"OBJECT_NAME":"STARLINK-31646","OBJECT_ID":"2024-050M","EPOCH":"2025-07-29T22:50:00.120192","MEAN_MOTION":15.30200965,"ECCENTRICITY":0.0001328,"INCLINATION":53.1572,"RA_OF_ASC_NODE":135.7827,"ARG_OF_PERICENTER":101.4441,"MEAN_ANOMALY":258.6708,"EPHEMERIS_TYPE":0,"CLASSIFICATION_TYPE":"U","NORAD_CAT_ID":59265,"ELEMENT_SET_NO":999,"REV_AT_EPOCH":7644,"BSTAR":8.6268e-5,"MEAN_MOTION_DOT":2.197e-5,"MEAN_MOTION_DDOT":0},{"OBJECT_NAME":"STARLINK-31648","OBJECT_ID":"2024-050N","EPOCH":"2025-07-29T12:52:15.256416","MEAN_MOTION":15.30192039,"ECCENTRICITY":0.0001383,"INCLINATION":53.1597,"RA_OF_ASC_NODE":137.4593,"ARG_OF_PERICENTER":81.0909,"MEAN_ANOMALY":279.0248,"EPHEMERIS_TYPE":0,"CLASSIFICATION_TYPE":"U","NORAD_CAT_ID":59266,"ELEMENT_SET_NO":999,"REV_AT_EPOCH":7638,"BSTAR":0.00010865,"MEAN_MOTION_DOT":2.859e-5,"MEAN_MOTION_DDOT":0},{"OBJECT_NAME":"STARLINK-31579","OBJECT_ID":"2024-050P","EPOCH":"2025-07-29T02:13:38.048736","MEAN_MOTION":15.30195983,"ECCENTRICITY":0.0001193,"INCLINATION":53.1592,"RA_OF_ASC_NODE":139.6655,"ARG_OF_PERICENTER":89.9194,"MEAN_ANOMALY":270.1943,"EPHEMERIS_TYPE":0,"CLASSIFICATION_TYPE":"U","NORAD_CAT_ID":59267,"ELEMENT_SET_NO":999,"REV_AT_EPOCH":7631,"BSTAR":5.2244e-5,"MEAN_MOTION_DOT":1.188e-5,"MEAN_MOTION_DDOT":0},{"OBJECT_NAME":"STARLINK-31627","OBJECT_ID":"2024-050Q","EPOCH":"2025-07-29T12:09:51.918624","MEAN_MOTION":15.30196374,"ECCENTRICITY":0.0001144,"INCLINATION":53.1602,"RA_OF_ASC_NODE":137.9808,"ARG_OF_PERICENTER":104.015,"MEAN_ANOMALY":256.0978,"EPHEMERIS_TYPE":0,"CLASSIFICATION_TYPE":"U","NORAD_CAT_ID":59268,"ELEMENT_SET_NO":999,"REV_AT_EPOCH":7637,"BSTAR":8.4643e-6,"MEAN_MOTION_DOT":-1.08e-6,"MEAN_MOTION_DDOT":0},{"OBJECT_NAME":"STARLINK-31609","OBJECT_ID":"2024-050R","EPOCH":"2025-07-29T22:45:27.207648","MEAN_MOTION":15.30185131,"ECCENTRICITY":0.0001301,"INCLINATION":53.1592,"RA_OF_ASC_NODE":135.7591,"ARG_OF_PERICENTER":78.4604,"MEAN_ANOMALY":281.6543,"EPHEMERIS_TYPE":0,"CLASSIFICATION_TYPE":"U","NORAD_CAT_ID":59269,"ELEMENT_SET_NO":999,"REV_AT_EPOCH":7644,"BSTAR":-2.4607e-5,"MEAN_MOTION_DOT":-1.087e-5,"MEAN_MOTION_DDOT":0},{"OBJECT_NAME":"STARLINK-31616","OBJECT_ID":"2024-050S","EPOCH":"2025-07-29T22:54:34.625952","MEAN_MOTION":15.3019985,"ECCENTRICITY":0.0001453,"INCLINATION":53.16,"RA_OF_ASC_NODE":135.8001,"ARG_OF_PERICENTER":83.0303,"MEAN_ANOMALY":277.0863,"EPHEMERIS_TYPE":0,"CLASSIFICATION_TYPE":"U","NORAD_CAT_ID":59270,"ELEMENT_SET_NO":999,"REV_AT_EPOCH":7644,"BSTAR":5.5263e-6,"MEAN_MOTION_DOT":-1.96e-6,"MEAN_MOTION_DDOT":0}]
